[
    {
        "Altitude(m)": 559726.6935748414,
        "Argument of Periapsis(deg)": 0.0,
        "Eccentricity": 0.0,
        "Inclination(deg)": 53.0,
        "Latitude(deg)": 52.383281678716585,
        "Longitude(deg)": 38.482293234414996,
        "Mean Anomaly(deg)": 98.18180000000001,
        "RAAN(deg)": 35.0,
        "Satellite Name": "Starlink Shell 1 160",
        "Satellite Number": 160,
        "Semi-Major Axis(m)": 6931778.249405717,
        "Time(s)": 0
    },
    {
        "Altitude(m)": 559699.253907214,
        "Argument of Periapsis(deg)": 0.00034857847951123687,
        "Eccentricity": 0.0,
        "Inclination(deg)": 53.0,
        "Latitude(deg)": 52.262523429238946,
        "Longitude(deg)": 39.44462277401052,
        "Mean Anomaly(deg)": 98.80863120355671,
        "RAAN(deg)": 34.99948122992253,
        "Satellite Name": "Starlink Shell 1 160",
        "Satellite Number": 160,
        "Semi-Major Axis(m)": 6931778.249405717,
        "Time(s)": 10
    },
    {
        "Altitude(m)": 559669.8664967974,
        "Argument of Periapsis(deg)": 0.0006971569590224737,
        "Eccentricity": 0.0,
        "Inclination(deg)": 53.0,
        "Latitude(deg)": 52.13328321747457,
        "Longitude(deg)": 40.40132872485037,
        "Mean Anomaly(deg)": 99.4354624071134,
        "RAAN(deg)": 34.998962459845046,
        "Satellite Name": "Starlink Shell 1 160",
        "Satellite Number": 160,
        "Semi-Major Axis(m)": 6931778.249405717,
        "Time(s)": 20
    },
    {
        "Altitude(m)": 559638.5490756119,
        "Argument of Periapsis(deg)": 0.0010457354385337105,
        "Eccentricity": 0.0,
        "Inclination(deg)": 53.0,
        "Latitude(deg)": 51.995648518158184,
        "Longitude(deg)": 41.352093814313726,
        "Mean Anomaly(deg)": 100.06229361067015,
        "RAAN(deg)": 34.998443689767576,
        "Satellite Name": "Starlink Shell 1 160",
        "Satellite Number": 160,
        "Semi-Major Axis(m)": 6931778.249405717,
        "Time(s)": 30
    },
    {
        "Altitude(m)": 559605.3205487209,
        "Argument of Periapsis(deg)": 0.0013943139180449475,
        "Eccentricity": 0.0,
        "Inclination(deg)": 53.0,
        "Latitude(deg)": 51.84971119488718,
        "Longitude(deg)": 42.29661646434436,
        "Mean Anomaly(deg)": 100.68912481422686,
        "RAAN(deg)": 34.99792491969011,
        "Satellite Name": "Starlink Shell 1 160",
        "Satellite Number": 160,
        "Semi-Major Axis(m)": 6931778.249405717,
        "Time(s)": 40
    },
    {
        "Altitude(m)": 559570.2009849844,
        "Argument of Periapsis(deg)": 0.0017428923975561844,
        "Eccentricity": 0.0,
        "Inclination(deg)": 53.0,
        "Latitude(deg)": 51.695567222450116,
        "Longitude(deg)": 43.234610200789625,
        "Mean Anomaly(deg)": 101.31595601778356,
        "RAAN(deg)": 34.99740614961263,
        "Satellite Name": "Starlink Shell 1 160",
        "Satellite Number": 160,
        "Semi-Major Axis(m)": 6931778.249405717,
        "Time(s)": 50
    },
    {
        "Altitude(m)": 559533.2116072676,
        "Argument of Periapsis(deg)": 0.002091470877067421,
        "Eccentricity": 0.0,
        "Inclination(deg)": 53.0,
        "Latitude(deg)": 51.533316404354245,
        "Longitude(deg)": 44.16580448922855,
        "Mean Anomaly(deg)": 101.94278722134027,
        "RAAN(deg)": 34.99688737953516,
        "Satellite Name": "Starlink Shell 1 160",
        "Satellite Number": 160,
        "Semi-Major Axis(m)": 6931778.249405717,
        "Time(s)": 60
    },
    {
        "Altitude(m)": 559494.3747820461,
        "Argument of Periapsis(deg)": 0.0024400493565786582,
        "Eccentricity": 0.0,
        "Inclination(deg)": 53.0,
        "Latitude(deg)": 51.36306208729723,
        "Longitude(deg)": 45.089945485972024,
        "Mean Anomaly(deg)": 102.56961842489699,
        "RAAN(deg)": 34.99636860945769,
        "Satellite Name": "Starlink Shell 1 160",
        "Satellite Number": 160,
        "Semi-Major Axis(m)": 6931778.249405717,
        "Time(s)": 70
    },
    {
        "Altitude(m)": 559453.7140084828,
        "Argument of Periapsis(deg)": 0.002788627836089895,
        "Eccentricity": 0.0,
        "Inclination(deg)": 53.0,
        "Latitude(deg)": 51.184910874257135,
        "Longitude(deg)": 46.00679519371405,
        "Mean Anomaly(deg)": 103.1964496284537,
        "RAAN(deg)": 34.99584983938021,
        "Satellite Name": "Starlink Shell 1 160",
        "Satellite Number": 160,
        "Semi-Major Axis(m)": 6931778.249405717,
        "Time(s)": 80
    },
    {
        "Altitude(m)": 559411.2539069061,
        "Argument of Periapsis(deg)": 0.0031372063156011316,
        "Eccentricity": 0.0,
        "Inclination(deg)": 53.0,
        "Latitude(deg)": 50.99897233780406,
        "Longitude(deg)": 46.91613205057761,
        "Mean Anomaly(deg)": 103.82328083201044,
        "RAAN(deg)": 34.99533106930274,
        "Satellite Name": "Starlink Shell 1 160",
        "Satellite Number": 160,
        "Semi-Major Axis(m)": 6931778.249405717,
        "Time(s)": 90
    },
    {
        "Altitude(m)": 559367.0202067696,
        "Argument of Periapsis(deg)": 0.0034857847951123688,
        "Eccentricity": 0.0,
        "Inclination(deg)": 53.0,
        "Latitude(deg)": 50.805358735140715,
        "Longitude(deg)": 47.81775144323225,
        "Mean Anomaly(deg)": 104.45011203556714,
        "RAAN(deg)": 34.994812299225266,
        "Satellite Name": "Starlink Shell 1 160",
        "Satellite Number": 160,
        "Semi-Major Axis(m)": 6931778.249405717,
        "Time(s)": 100
    },
    {
        "Altitude(m)": 559321.039734041,
        "Argument of Periapsis(deg)": 0.003834363274623606,
        "Eccentricity": 0.0,
        "Inclination(deg)": 53.0,
        "Latitude(deg)": 50.604184726281495,
        "Longitude(deg)": 48.71146463523736,
        "Mean Anomaly(deg)": 105.07694323912385,
        "RAAN(deg)": 34.9942935291478,
        "Satellite Name": "Starlink Shell 1 160",
        "Satellite Number": 160,
        "Semi-Major Axis(m)": 6931778.249405717,
        "Time(s)": 110
    },
    {
        "Altitude(m)": 559273.3403980529,
        "Argument of Periapsis(deg)": 0.004182941754134842,
        "Eccentricity": 0.0,
        "Inclination(deg)": 53.0,
        "Latitude(deg)": 50.395567096677716,
        "Longitude(deg)": 49.597099140788046,
        "Mean Anomaly(deg)": 105.70377444268055,
        "RAAN(deg)": 34.99377475907033,
        "Satellite Name": "Starlink Shell 1 160",
        "Satellite Number": 160,
        "Semi-Major Axis(m)": 6931778.249405717,
        "Time(s)": 120
    },
    {
        "Altitude(m)": 559223.9511778211,
        "Argument of Periapsis(deg)": 0.004531520233646079,
        "Eccentricity": 0.0,
        "Inclination(deg)": 53.0,
        "Latitude(deg)": 50.17962448547795,
        "Longitude(deg)": 50.474499035725245,
        "Mean Anomaly(deg)": 106.33060564623729,
        "RAAN(deg)": 34.99325598899285,
        "Satellite Name": "Starlink Shell 1 160",
        "Satellite Number": 160,
        "Semi-Major Axis(m)": 6931778.249405717,
        "Time(s)": 130
    },
    {
        "Altitude(m)": 559172.9021078068,
        "Argument of Periapsis(deg)": 0.0048800987131573164,
        "Eccentricity": 0.0,
        "Inclination(deg)": 53.0,
        "Latitude(deg)": 49.956477120495066,
        "Longitude(deg)": 51.34352369790864,
        "Mean Anomaly(deg)": 106.95743684979402,
        "RAAN(deg)": 34.99273721891538,
        "Satellite Name": "Starlink Shell 1 160",
        "Satellite Number": 160,
        "Semi-Major Axis(m)": 6931778.249405717,
        "Time(s)": 140
    },
    {
        "Altitude(m)": 559120.2242631819,
        "Argument of Periapsis(deg)": 0.005228677192668553,
        "Eccentricity": 0.0,
        "Inclination(deg)": 53.0,
        "Latitude(deg)": 49.72624656083832,
        "Longitude(deg)": 52.20404800783095,
        "Mean Anomaly(deg)": 107.58426805335073,
        "RAAN(deg)": 34.99221844883791,
        "Satellite Name": "Starlink Shell 1 160",
        "Satellite Number": 160,
        "Semi-Major Axis(m)": 6931778.249405717,
        "Time(s)": 150
    },
    {
        "Altitude(m)": 559065.9497445511,
        "Argument of Periapsis(deg)": 0.00557725567217979,
        "Eccentricity": 0.0,
        "Inclination(deg)": 53.0,
        "Latitude(deg)": 49.489055448043715,
        "Longitude(deg)": 53.05596250181328,
        "Mean Anomaly(deg)": 108.21109925690742,
        "RAAN(deg)": 34.99169967876043,
        "Satellite Name": "Starlink Shell 1 160",
        "Satellite Number": 160,
        "Semi-Major Axis(m)": 6931778.249405717,
        "Time(s)": 160
    },
    {
        "Altitude(m)": 559010.1116621789,
        "Argument of Periapsis(deg)": 0.0059258341516910265,
        "Eccentricity": 0.0,
        "Inclination(deg)": 53.0,
        "Latitude(deg)": 49.24502726641642,
        "Longitude(deg)": 53.89917197013935,
        "Mean Anomaly(deg)": 108.83793046046412,
        "RAAN(deg)": 34.99118090868296,
        "Satellite Name": "Starlink Shell 1 160",
        "Satellite Number": 160,
        "Semi-Major Axis(m)": 6931778.249405717,
        "Time(s)": 170
    },
    {
        "Altitude(m)": 558952.7441196761,
        "Argument of Periapsis(deg)": 0.006274412631202263,
        "Eccentricity": 0.0,
        "Inclination(deg)": 53.0,
        "Latitude(deg)": 48.9942861131905,
        "Longitude(deg)": 54.73359553106926,
        "Mean Anomaly(deg)": 109.46476166402088,
        "RAAN(deg)": 34.99066213860549,
        "Satellite Name": "Starlink Shell 1 160",
        "Satellite Number": 160,
        "Semi-Major Axis(m)": 6931778.249405717,
        "Time(s)": 180
    }
]